{"type": "FeatureCollection", "name": "gaza_governorates", "source": "geoBoundaries PSE-ADM2 (CC BY 4.0) — simplified", "features": [{"type": "Feature", "properties": {"shapeISO": "PS-RFH", "shapeName": "Rafah", "shapeID": "87354302B11532502248212", "shapeGroup": "PSE", "shapeType": "ADM2", "name_ar": "رفح", "match_names": ["Rafah", "رفح"]}, "geometry": {"type": "Polygon", "coordinates": [[[34.2441495150001, 31.3417902740001], [34.2421151460001, 31.343020359], [34.2186651850001, 31.3237523290001], [34.2354583790001, 31.2968885290001], [34.2401102170001, 31.2958340050001], [34.265970854, 31.2243847880001], [34.2804966740001, 31.2292094200001], [34.2932404630001, 31.2414405860001], [34.3178027600001, 31.2520362390001], [34.3258536870001, 31.257389835], [34.324589544, 31.2608473620001], [34.329400331, 31.2642819490001], [34.324060893, 31.273101706], [34.319936264, 31.2714156330001], [34.31936775, 31.2725580800001], [34.3155146720001, 31.286464059], [34.3134151940001, 31.287913772], [34.315328101, 31.295160905], [34.305173417, 31.293220875], [34.2969406290001, 31.293429847], [34.2861502900001, 31.299416265], [34.285905481, 31.2968559600001], [34.28306538, 31.298611486], [34.2771772780001, 31.304102696], [34.282452644, 31.3108001410001], [34.2846928550001, 31.3166263270001], [34.281993904, 31.317762429], [34.276248523, 31.3246768280001], [34.2728001350001, 31.3261585670001], [34.2719126800001, 31.3206746700001], [34.270548697, 31.3212567470001], [34.269593404, 31.319839938], [34.2633752880001, 31.3304723430001], [34.25763584, 31.3368325800001], [34.2537781770001, 31.333138885], [34.251776281, 31.335807931], [34.2525914020001, 31.336742783], [34.2476887080001, 31.3380772080001], [34.2441599490001, 31.3417813520001], [34.2441495150001, 31.3417902740001]]]}}, {"type": "Feature", "properties": {"shapeISO": "PS-NGZ", "shapeName": "North Gaza", "shapeID": "87354302B69236118899353", "shapeGroup": "PSE", "shapeType": "ADM2", "name_ar": "شمال غزة", "match_names": ["North Gaza", "شمال غزة"]}, "geometry": {"type": "Polygon", "coordinates": [[[34.5198636054993, 31.501701593399], [34.525287367, 31.502713102], [34.531648623, 31.506777765], [34.547293424, 31.51269302], [34.5507906670001, 31.516516031], [34.5550312760001, 31.5184309300001], [34.5550250580001, 31.52203387], [34.562611288, 31.5300497910001], [34.566427108, 31.533819968], [34.5675506060001, 31.5415036150001], [34.4913874150001, 31.5949127650001], [34.4671054180001, 31.563052585], [34.456287504, 31.549677043], [34.45480114, 31.5482292990001], [34.454104139, 31.547466442], [34.453791, 31.5471299210001], [34.45371341, 31.5470465380001], [34.453587770462, 31.5469115376472], [34.454178208, 31.5466354910001], [34.4550051093102, 31.546248883009], [34.4619796276093, 31.5420628190041], [34.4649572968483, 31.5394153296947], [34.4652135968208, 31.5392187833786], [34.4657611800001, 31.5387989720001], [34.465909036, 31.5386856060001], [34.4659430384636, 31.5386595129967], [34.466346372, 31.538350284], [34.4664746880001, 31.5382519], [34.468050122261, 31.5370439291], [34.4681324110001, 31.536981493], [34.468268272, 31.5368784140001], [34.468386054039, 31.5367890298367], [34.4688319563866, 31.5364507138729], [34.468966042, 31.536349011], [34.4697443246841, 31.5357585251331], [34.4699569344521, 31.535597205162], [34.4700387120247, 31.5355351269245], [34.470067837, 31.535513059], [34.4703320670001, 31.535312581], [34.4704057574272, 31.5352566540241], [34.4729311466217, 31.5333646535873], [34.472984790802, 31.5333360433578], [34.472999255, 31.533328344], [34.47306996, 31.5332906460001], [34.4744609420001, 31.5321773850001], [34.4745387740001, 31.5321104880001], [34.4745510816574, 31.5320993959904], [34.4745632410049, 31.5320883095264], [34.4745706190001, 31.5320815380001], [34.4745827250001, 31.532070296], [34.4746115803719, 31.5320428311825], [34.4746205110001, 31.5320341890001], [34.4746300578117, 31.5320248007774], [34.4746432304382, 31.5320117175579], [34.4746676450001, 31.531987052], [34.474732084, 31.531918368], [34.4747908115387, 31.5318610668182], [34.474853926, 31.5318072540001], [34.4749075710001, 31.5317667530001], [34.4749396930001, 31.5317445050001], [34.474950478, 31.5317373440001], [34.4749990105629, 31.5317069292068], [34.4750261306763, 31.5316911637783], [34.475105145, 31.5316497790001], [34.47518746, 31.531613157], [34.4752426147461, 31.5315910875797], [34.475256443, 31.5315857410001], [34.4752703309059, 31.5315804481506], [34.4752989411354, 31.5315698087215], [34.475391028, 31.5315376720001], [34.475404295, 31.5315333090001], [34.4754338264465, 31.5315238535404], [34.4754623770714, 31.5315149724483], [34.4754750132561, 31.5315111577511], [34.4754876920001, 31.531507375], [34.4755003452301, 31.5315036475658], [34.4755670428276, 31.5314850211143], [34.475649977, 31.531464037], [34.47610515, 31.531372757], [34.4762141704559, 31.5313555896282], [34.4763227701187, 31.5313357114792], [34.4764400110001, 31.531310804], [34.4765564203262, 31.5312823355198], [34.4766094410001, 31.531268862], [34.4766203761101, 31.5312659740448], [34.4766316413879, 31.5312629640102], [34.4766547679901, 31.5312567055225], [34.4766702055931, 31.5312524139881], [34.476685553, 31.5312481], [34.4766951799393, 31.5312453508377], [34.476707677, 31.53124175], [34.476731569, 31.5312347300001], [34.4767437577248, 31.5312310755253], [34.4767801761627, 31.5312199294567], [34.476791203022, 31.5312161743641], [34.4768041968346, 31.5312117636204], [34.476843235, 31.5311981620001], [34.4772581300001, 31.5310380190001], [34.4754392470001, 31.527395906], [34.4738963246346, 31.5277613401413], [34.470430229, 31.526454819], [34.4694832540001, 31.5258501600001], [34.469409205, 31.5257673580001], [34.469332089, 31.5256879300001], [34.4692525863647, 31.5256123840809], [34.4689503908157, 31.5253525078297], [34.4707255363464, 31.5249693095684], [34.4710741639137, 31.5247212052345], [34.4714694619179, 31.5244818627834], [34.4714852571487, 31.5244674384594], [34.4714947640001, 31.5244546930001], [34.4715006947517, 31.5244434773922], [34.4715058207512, 31.5244280397892], [34.4715078460001, 31.524413381], [34.4715120650001, 31.5243970610001], [34.471519109, 31.524381471], [34.4715409840001, 31.5243539000001], [34.4719946980476, 31.5239942967892], [34.472514629364, 31.5236250460148], [34.4725382328033, 31.5236094295979], [34.4727156162262, 31.5234907269478], [34.472797036171, 31.5234353542328], [34.47290073, 31.5233633460001], [34.4730251180001, 31.523276948], [34.4730659100001, 31.5232486150001], [34.4733401980001, 31.523051642], [34.4740923410001, 31.522461848], [34.4741559028625, 31.5224864184856], [34.4741771770001, 31.5224969980001], [34.474197013, 31.522510068], [34.4742304682732, 31.5225392580032], [34.4742589592934, 31.5225626826286], [34.4743425200001, 31.5226313490001], [34.4743563280001, 31.5226427010001], [34.474908515, 31.522174937], [34.4753755080001, 31.521733028], [34.475510163, 31.5216160860001], [34.4755271020001, 31.5216010520001], [34.4755841493607, 31.5215504169464], [34.4758135000001, 31.5213534380001], [34.47585337, 31.5213185050001], [34.475874172, 31.5213002790001], [34.4758818745613, 31.5212936103344], [34.4758896070001, 31.521286972], [34.4760937040001, 31.521426148], [34.4761093258858, 31.5214379131794], [34.4761877655983, 31.5214964449406], [34.4762577414513, 31.5215478539467], [34.4766932725906, 31.5218585133553], [34.4803709280001, 31.519680669], [34.4803464412689, 31.5196475088596], [34.4795170426369, 31.5186284482479], [34.4794704318047, 31.5185668468475], [34.4807510972023, 31.5161097347736], [34.4809079766274, 31.5161848366261], [34.4813559520001, 31.516395145], [34.4830405116081, 31.5171295702457], [34.484526857, 31.5175671740001], [34.4854286909103, 31.5165483057499], [34.485447756, 31.516518649], [34.485656062, 31.5166285650001], [34.486555905, 31.5171085760001], [34.487603167, 31.5176692250001], [34.4888762680001, 31.5183409690001], [34.488903335, 31.5183585980001], [34.490275539, 31.5169406250001], [34.4910689480001, 31.5164308560001], [34.492083472, 31.5158869950001], [34.4921463530001, 31.5158517580001], [34.4922193260001, 31.515809216], [34.4922943711281, 31.5157635509968], [34.4923361539841, 31.5157372653484], [34.4924132823944, 31.5156871378422], [34.4924591660001, 31.5156562], [34.492481406, 31.515640929], [34.4924975633621, 31.5156297981739], [34.4925106167793, 31.515620559454], [34.4925619790001, 31.5155834820001], [34.4926064014435, 31.5155504345894], [34.492623479, 31.5155374440001], [34.4926738840001, 31.515498355], [34.4926998019218, 31.5154777765274], [34.4927361011505, 31.5154483318329], [34.4927847910001, 31.5154077550001], [34.4928042720001, 31.5153911640001], [34.4928501844406, 31.5153511464596], [34.4929029300001, 31.5153036660001], [34.4929229320001, 31.5152851980001], [34.492948114872, 31.5152615606785], [34.4929562807083, 31.5152538120747], [34.4938028454781, 31.5144380331039], [34.4946789741516, 31.5136201381683], [34.495794636, 31.512570001], [34.497022126, 31.511392679], [34.4980984330177, 31.5104083716869], [34.49884724617, 31.5097207129002], [34.4994749730001, 31.5091442390001], [34.4995605330001, 31.5092292740001], [34.4995709570001, 31.5092422500001], [34.4995995759964, 31.5092715024948], [34.5006454586983, 31.5105221271515], [34.501772696, 31.511930513], [34.501934206, 31.512160345], [34.5022577460001, 31.512589674], [34.5025884240001, 31.5130228140001], [34.5028491616249, 31.513360440731], [34.503111603, 31.5136967490001], [34.503148496151, 31.5137437582016], [34.5041531324387, 31.5129860341549], [34.5052917599678, 31.5120128393173], [34.5056791305542, 31.5117195546627], [34.505876660347, 31.5115780830383], [34.5061979110001, 31.51134203], [34.508194916, 31.509990805], [34.5100488040001, 31.508668245], [34.5106775730001, 31.5081657640001], [34.510844331, 31.508037937], [34.5110151767731, 31.5079152286053], [34.5110610723495, 31.5078835785389], [34.5112248500001, 31.5077752390001], [34.5114549790001, 31.5076361770001], [34.5115871429443, 31.5075763463974], [34.511655611, 31.507552203], [34.511704146862, 31.5075352489948], [34.5117518305779, 31.5075159966946], [34.5113567709923, 31.5072668790817], [34.5115030270001, 31.507164577], [34.5116526240001, 31.507067233], [34.511941226, 31.5068983090001], [34.5120891928673, 31.5068204402924], [34.512239493, 31.5067471020001], [34.5134294629097, 31.5061325132847], [34.5134712330001, 31.506111006], [34.5155273079872, 31.5050563812256], [34.5198636054993, 31.501701593399]]]}}, {"type": "Feature", "properties": {"shapeISO": "PS-GZA*", "shapeName": "Gaza", "shapeID": "87354302B92317438543703", "shapeGroup": "PSE", "shapeType": "ADM2", "name_ar": "غزة", "match_names": ["Gaza", "غزة"]}, "geometry": {"type": "Polygon", "coordinates": [[[34.453587770462, 31.5469115376472], [34.4342136383057, 31.5254623293877], [34.431752383709, 31.5237206220627], [34.429060280323, 31.5240444839001], [34.4301738142967, 31.522429049015], [34.4236050844193, 31.5136361122131], [34.372820019722, 31.461372345686], [34.373760342598, 31.4614077210426], [34.3738928400001, 31.4614127070001], [34.3762250410001, 31.4624149520001], [34.3807912980001, 31.463465254], [34.386424038, 31.465802635], [34.386540634, 31.465821077], [34.386722896, 31.465840626], [34.3867645859718, 31.4658435583115], [34.3868461760001, 31.465847625], [34.3869771220001, 31.4658495620001], [34.3887600250001, 31.4657866480001], [34.389381395, 31.4657841440001], [34.3896785974503, 31.465786755085], [34.3898266520001, 31.465789], [34.3899202346802, 31.4657907187939], [34.3899666460001, 31.465791676], [34.390011370182, 31.4657926559448], [34.3927689790726, 31.4659561216831], [34.395401716, 31.465650435], [34.3954447507858, 31.4655994176865], [34.3954922710001, 31.4655525410001], [34.3955990750001, 31.465472687], [34.395846842, 31.4653770040001], [34.3964222430001, 31.4657005500001], [34.3966822, 31.4658567450001], [34.3969680650001, 31.4660359710001], [34.3970018625259, 31.4660546183586], [34.3973943591118, 31.466086357832], [34.39755939, 31.4660817970001], [34.3977221846581, 31.4660668969154], [34.397924647, 31.466033479], [34.3980291990001, 31.4660095740001], [34.3980935060001, 31.465992466], [34.3981662250001, 31.4659708930001], [34.3982556350001, 31.465940978], [34.3983438014984, 31.4659076035023], [34.3984086470001, 31.465880487], [34.3984572210001, 31.4658587380001], [34.398500068, 31.465838395], [34.3985608790001, 31.465807641], [34.3986207630001, 31.4657751170001], [34.3986527323723, 31.465756803751], [34.3986843660001, 31.4657379930001], [34.3987622610001, 31.4656885580001], [34.3988380160001, 31.4656359040001], [34.399013632, 31.465495011], [34.3990797400475, 31.4654325544834], [34.3991430997849, 31.4653666615486], [34.399203218, 31.4652978190001], [34.3992599248886, 31.4652261734009], [34.3993146419525, 31.4651496708393], [34.3993654847145, 31.4650705456734], [34.399412388, 31.4649890150001], [34.3994551770001, 31.464905265], [34.3995175750001, 31.4647523460001], [34.4000252970001, 31.461187796], [34.401128822, 31.4601144750001], [34.4013014920001, 31.459980237], [34.4014280760001, 31.459883029], [34.4015828967094, 31.459764122963], [34.4019998310001, 31.45944396], [34.4116207361221, 31.4573534727097], [34.4116969108582, 31.4573030769825], [34.4117189645767, 31.4572754502296], [34.4117340180001, 31.4572483640001], [34.413180104, 31.456687839], [34.414892174, 31.4553319510001], [34.4148732423782, 31.4553022384644], [34.4137648830001, 31.454243557], [34.4136917960001, 31.4541746570001], [34.4136550426483, 31.4541422426701], [34.4136428150001, 31.4541317860001], [34.4136179089546, 31.4541109204292], [34.4136025905609, 31.4540983736515], [34.4135923981667, 31.4540901482105], [34.4135821580001, 31.4540819750001], [34.4135718345642, 31.4540738463402], [34.413560305, 31.454064863], [34.4135510790001, 31.454057757], [34.4135406017303, 31.454049795866], [34.413530091, 31.454041869], [34.4134982040001, 31.454018433], [34.4134874700001, 31.4540107290001], [34.4134764671326, 31.4540028870106], [34.4134549498558, 31.4539879262447], [34.413444021, 31.4539804410001], [34.4134330300001, 31.453973008], [34.4134219884872, 31.4539656341076], [34.413348564, 31.4539187170001], [34.413274088, 31.4538747660001], [34.413216522, 31.4538389730001], [34.413025068, 31.4537162230001], [34.4127031564713, 31.45353063941], [34.412538619, 31.4534451860001], [34.4123558998108, 31.4533606171608], [34.412190965, 31.453284582], [34.4118070006371, 31.4531086683273], [34.411876652, 31.4530634230001], [34.4119921920001, 31.452988869], [34.4123182892799, 31.4527784585953], [34.4124761819839, 31.4526765346527], [34.4126199483871, 31.4525782465935], [34.4129951000214, 31.4523776769638], [34.412750063, 31.4519986130001], [34.4117228388786, 31.4523472487926], [34.4096306562424, 31.4508322477341], [34.4161508083344, 31.4413392543793], [34.4160668253899, 31.4411146044731], [34.4159973859787, 31.4409318566322], [34.4158646340001, 31.440582421], [34.4158539175987, 31.4405542314053], [34.4157509770001, 31.440283274], [34.4173112450001, 31.436854919], [34.4178631305695, 31.4369932711124], [34.4179356694222, 31.4369177222252], [34.4180093790001, 31.4368382690001], [34.4180774092674, 31.4367646872997], [34.4192571043968, 31.4367870092392], [34.4196389317513, 31.4357431232929], [34.4196498960001, 31.435692579], [34.4196568560001, 31.435641338], [34.4196597760001, 31.435589706], [34.4196591973305, 31.4355289936066], [34.4196583628654, 31.4354173541069], [34.419651796, 31.4353217290001], [34.4196395874023, 31.4352266788483], [34.4188439846039, 31.4351459741592], [34.4174376130104, 31.4350032806396], [34.4179257154465, 31.4336186945438], [34.4176535010338, 31.4335793852806], [34.4174931645393, 31.4335561990738], [34.4163525104523, 31.4333914518356], [34.416288191, 31.433382142], [34.4158086180687, 31.4333128631115], [34.415819974, 31.4332686110001], [34.4160458970001, 31.4323875870001], [34.41621545, 31.4317318070001], [34.4163056612015, 31.431382805109], [34.42173359, 31.4300229300001], [34.4221505522728, 31.4299064278603], [34.4259790130001, 31.4288067540001], [34.426376674, 31.4286925320001], [34.4263421297073, 31.428268969059], [34.4262588024139, 31.4272463917732], [34.4262187420001, 31.4267563170001], [34.4322224259377, 31.4322842657566], [34.4373084306717, 31.4399816393852], [34.4464027285576, 31.4438064694405], [34.473458468914, 31.4703812897205], [34.4783231019974, 31.472262442112], [34.4833309054375, 31.4788180589676], [34.5113027691841, 31.4996374845505], [34.5198636054993, 31.501701593399], [34.5155273079872, 31.5050563812256], [34.5134712330001, 31.506111006], [34.5134294629097, 31.5061325132847], [34.512239493, 31.5067471020001], [34.5120891928673, 31.5068204402924], [34.511941226, 31.5068983090001], [34.5116526240001, 31.507067233], [34.5115030270001, 31.507164577], [34.5113567709923, 31.5072668790817], [34.5117518305779, 31.5075159966946], [34.511704146862, 31.5075352489948], [34.511655611, 31.507552203], [34.5115871429443, 31.5075763463974], [34.5114549790001, 31.5076361770001], [34.5112248500001, 31.5077752390001], [34.5110610723495, 31.5078835785389], [34.5110151767731, 31.5079152286053], [34.510844331, 31.508037937], [34.5106775730001, 31.5081657640001], [34.5100488040001, 31.508668245], [34.508194916, 31.509990805], [34.5061979110001, 31.51134203], [34.505876660347, 31.5115780830383], [34.5056791305542, 31.5117195546627], [34.5052917599678, 31.5120128393173], [34.5041531324387, 31.5129860341549], [34.503148496151, 31.5137437582016], [34.503111603, 31.5136967490001], [34.5028491616249, 31.513360440731], [34.5025884240001, 31.5130228140001], [34.5022577460001, 31.512589674], [34.501934206, 31.512160345], [34.501772696, 31.511930513], [34.5006454586983, 31.5105221271515], [34.4995995759964, 31.5092715024948], [34.4995709570001, 31.5092422500001], [34.4995605330001, 31.5092292740001], [34.4994749730001, 31.5091442390001], [34.49884724617, 31.5097207129002], [34.4980984330177, 31.5104083716869], [34.497022126, 31.511392679], [34.495794636, 31.512570001], [34.4946789741516, 31.5136201381683], [34.4938028454781, 31.5144380331039], [34.4929562807083, 31.5152538120747], [34.492948114872, 31.5152615606785], [34.4929229320001, 31.5152851980001], [34.4929029300001, 31.5153036660001], [34.4928501844406, 31.5153511464596], [34.4928042720001, 31.5153911640001], [34.4927847910001, 31.5154077550001], [34.4927361011505, 31.5154483318329], [34.4926998019218, 31.5154777765274], [34.4926738840001, 31.515498355], [34.492623479, 31.5155374440001], [34.4926064014435, 31.5155504345894], [34.4925619790001, 31.5155834820001], [34.4925106167793, 31.515620559454], [34.4924975633621, 31.5156297981739], [34.492481406, 31.515640929], [34.4924591660001, 31.5156562], [34.4924132823944, 31.5156871378422], [34.4923361539841, 31.5157372653484], [34.4922943711281, 31.5157635509968], [34.4922193260001, 31.515809216], [34.4921463530001, 31.5158517580001], [34.492083472, 31.5158869950001], [34.4910689480001, 31.5164308560001], [34.490275539, 31.5169406250001], [34.488903335, 31.5183585980001], [34.4888762680001, 31.5183409690001], [34.487603167, 31.5176692250001], [34.486555905, 31.5171085760001], [34.485656062, 31.5166285650001], [34.485447756, 31.516518649], [34.4854286909103, 31.5165483057499], [34.484526857, 31.5175671740001], [34.4830405116081, 31.5171295702457], [34.4813559520001, 31.516395145], [34.4809079766274, 31.5161848366261], [34.4807510972023, 31.5161097347736], [34.4794704318047, 31.5185668468475], [34.4795170426369, 31.5186284482479], [34.4803464412689, 31.5196475088596], [34.4803709280001, 31.519680669], [34.4766932725906, 31.5218585133553], [34.4762577414513, 31.5215478539467], [34.4761877655983, 31.5214964449406], [34.4761093258858, 31.5214379131794], [34.4760937040001, 31.521426148], [34.4758896070001, 31.521286972], [34.4758818745613, 31.5212936103344], [34.475874172, 31.5213002790001], [34.47585337, 31.5213185050001], [34.4758135000001, 31.5213534380001], [34.4755841493607, 31.5215504169464], [34.4755271020001, 31.5216010520001], [34.475510163, 31.5216160860001], [34.4753755080001, 31.521733028], [34.474908515, 31.522174937], [34.4743563280001, 31.5226427010001], [34.4743425200001, 31.5226313490001], [34.4742589592934, 31.5225626826286], [34.4742304682732, 31.5225392580032], [34.474197013, 31.522510068], [34.4741771770001, 31.5224969980001], [34.4741559028625, 31.5224864184856], [34.4740923410001, 31.522461848], [34.4733401980001, 31.523051642], [34.4730659100001, 31.5232486150001], [34.4730251180001, 31.523276948], [34.47290073, 31.5233633460001], [34.472797036171, 31.5234353542328], [34.4727156162262, 31.5234907269478], [34.4725382328033, 31.5236094295979], [34.472514629364, 31.5236250460148], [34.4719946980476, 31.5239942967892], [34.4715409840001, 31.5243539000001], [34.471519109, 31.524381471], [34.4715120650001, 31.5243970610001], [34.4715078460001, 31.524413381], [34.4715058207512, 31.5244280397892], [34.4715006947517, 31.5244434773922], [34.4714947640001, 31.5244546930001], [34.4714852571487, 31.5244674384594], [34.4714694619179, 31.5244818627834], [34.4710741639137, 31.5247212052345], [34.4707255363464, 31.5249693095684], [34.4689503908157, 31.5253525078297], [34.4692525863647, 31.5256123840809], [34.469332089, 31.5256879300001], [34.469409205, 31.5257673580001], [34.4694832540001, 31.5258501600001], [34.470430229, 31.526454819], [34.4738963246346, 31.5277613401413], [34.4754392470001, 31.527395906], [34.4772581300001, 31.5310380190001], [34.476843235, 31.5311981620001], [34.4768041968346, 31.5312117636204], [34.476791203022, 31.5312161743641], [34.4767801761627, 31.5312199294567], [34.4767437577248, 31.5312310755253], [34.476731569, 31.5312347300001], [34.476707677, 31.53124175], [34.4766951799393, 31.5312453508377], [34.476685553, 31.5312481], [34.4766702055931, 31.5312524139881], [34.4766547679901, 31.5312567055225], [34.4766316413879, 31.5312629640102], [34.4766203761101, 31.5312659740448], [34.4766094410001, 31.531268862], [34.4765564203262, 31.5312823355198], [34.4764400110001, 31.531310804], [34.4763227701187, 31.5313357114792], [34.4762141704559, 31.5313555896282], [34.47610515, 31.531372757], [34.475649977, 31.531464037], [34.4755670428276, 31.5314850211143], [34.4755003452301, 31.5315036475658], [34.4754876920001, 31.531507375], [34.4754750132561, 31.5315111577511], [34.4754623770714, 31.5315149724483], [34.4754338264465, 31.5315238535404], [34.475404295, 31.5315333090001], [34.475391028, 31.5315376720001], [34.4752989411354, 31.5315698087215], [34.4752703309059, 31.5315804481506], [34.475256443, 31.5315857410001], [34.4752426147461, 31.5315910875797], [34.47518746, 31.531613157], [34.475105145, 31.5316497790001], [34.4750261306763, 31.5316911637783], [34.4749990105629, 31.5317069292068], [34.474950478, 31.5317373440001], [34.4749396930001, 31.5317445050001], [34.4749075710001, 31.5317667530001], [34.474853926, 31.5318072540001], [34.4747908115387, 31.5318610668182], [34.474732084, 31.531918368], [34.4746676450001, 31.531987052], [34.4746432304382, 31.5320117175579], [34.4746300578117, 31.5320248007774], [34.4746205110001, 31.5320341890001], [34.4746115803719, 31.5320428311825], [34.4745827250001, 31.532070296], [34.4745706190001, 31.5320815380001], [34.4745632410049, 31.5320883095264], [34.4745510816574, 31.5320993959904], [34.4745387740001, 31.5321104880001], [34.4744609420001, 31.5321773850001], [34.47306996, 31.5332906460001], [34.472999255, 31.533328344], [34.472984790802, 31.5333360433578], [34.4729311466217, 31.5333646535873], [34.4704057574272, 31.5352566540241], [34.4703320670001, 31.535312581], [34.470067837, 31.535513059], [34.4700387120247, 31.5355351269245], [34.4699569344521, 31.535597205162], [34.4697443246841, 31.5357585251331], [34.468966042, 31.536349011], [34.4688319563866, 31.5364507138729], [34.468386054039, 31.5367890298367], [34.468268272, 31.5368784140001], [34.4681324110001, 31.536981493], [34.468050122261, 31.5370439291], [34.4664746880001, 31.5382519], [34.466346372, 31.538350284], [34.4659430384636, 31.5386595129967], [34.465909036, 31.5386856060001], [34.4657611800001, 31.5387989720001], [34.4652135968208, 31.5392187833786], [34.4649572968483, 31.5394153296947], [34.4619796276093, 31.5420628190041], [34.4550051093102, 31.546248883009], [34.454178208, 31.5466354910001], [34.453587770462, 31.5469115376472]]]}}, {"type": "Feature", "properties": {"shapeISO": "PS-KYS", "shapeName": "Khan Yunis", "shapeID": "87354302B21422506618890", "shapeGroup": "PSE", "shapeType": "ADM2", "name_ar": "خانيونس", "match_names": ["Khan Yunis", "خانيونس"]}, "geometry": {"type": "Polygon", "coordinates": [[[34.3258536870001, 31.257389835], [34.336616211, 31.267642675], [34.3429670140001, 31.2784211420001], [34.3666463120001, 31.2900004860001], [34.370234919, 31.2963594760001], [34.373768797, 31.307279797], [34.365439726, 31.3615781250001], [34.367289446, 31.3688886310001], [34.371951315, 31.3697253220001], [34.3736752090001, 31.373938996], [34.364799717, 31.3753925570001], [34.3626054060001, 31.3776554450001], [34.3612001480001, 31.3762468260001], [34.3589816890001, 31.3773929060001], [34.3501089600001, 31.38845911], [34.3456435360001, 31.3909233540001], [34.340993188, 31.384787799], [34.3331395720001, 31.3908216150001], [34.323442841, 31.3904859360001], [34.3207643540001, 31.393465506], [34.320305923, 31.3969607400001], [34.3111578840001, 31.402825272], [34.2995222220001, 31.394302759], [34.2768500380001, 31.372410675], [34.2421151460001, 31.343020359], [34.2441495150001, 31.3417902740001], [34.2441599490001, 31.3417813520001], [34.2476887080001, 31.3380772080001], [34.2525914020001, 31.336742783], [34.251776281, 31.335807931], [34.2537781770001, 31.333138885], [34.25763584, 31.3368325800001], [34.2633752880001, 31.3304723430001], [34.269593404, 31.319839938], [34.270548697, 31.3212567470001], [34.2719126800001, 31.3206746700001], [34.2728001350001, 31.3261585670001], [34.276248523, 31.3246768280001], [34.281993904, 31.317762429], [34.2846928550001, 31.3166263270001], [34.282452644, 31.3108001410001], [34.2771772780001, 31.304102696], [34.28306538, 31.298611486], [34.285905481, 31.2968559600001], [34.2861502900001, 31.299416265], [34.2969406290001, 31.293429847], [34.305173417, 31.293220875], [34.315328101, 31.295160905], [34.3134151940001, 31.287913772], [34.3155146720001, 31.286464059], [34.31936775, 31.2725580800001], [34.319936264, 31.2714156330001], [34.324060893, 31.273101706], [34.329400331, 31.2642819490001], [34.324589544, 31.2608473620001], [34.3258536870001, 31.257389835]]]}}, {"type": "Feature", "properties": {"shapeISO": "PS-DEB", "shapeName": "Deir Al Balah", "shapeID": "87354302B22339434669936", "shapeGroup": "PSE", "shapeType": "ADM2", "name_ar": "دير البلح", "match_names": ["Deir Al Balah", "دير البلح"]}, "geometry": {"type": "Polygon", "coordinates": [[[34.372820019722, 31.461372345686], [34.372606503, 31.4611633750001], [34.371939486, 31.460609585], [34.370847014, 31.4598175450001], [34.3703928640001, 31.4593697930001], [34.351945152, 31.4397407770001], [34.337480488, 31.4255148830001], [34.3111578840001, 31.402825272], [34.320305923, 31.3969607400001], [34.3207643540001, 31.393465506], [34.323442841, 31.3904859360001], [34.3331395720001, 31.3908216150001], [34.340993188, 31.384787799], [34.3456435360001, 31.3909233540001], [34.3501089600001, 31.38845911], [34.3589816890001, 31.3773929060001], [34.3612001480001, 31.3762468260001], [34.3626054060001, 31.3776554450001], [34.364799717, 31.3753925570001], [34.3736752090001, 31.373938996], [34.3743927310001, 31.3786598990001], [34.379897086, 31.3856118], [34.380692186, 31.389409205], [34.393084334, 31.399980515], [34.395589869, 31.40461714], [34.4021583950001, 31.4110321750001], [34.4069646660001, 31.4124869620001], [34.4262187420001, 31.4267563170001], [34.4262588024139, 31.4272463917732], [34.4263421297073, 31.428268969059], [34.426376674, 31.4286925320001], [34.4259790130001, 31.4288067540001], [34.4221505522728, 31.4299064278603], [34.42173359, 31.4300229300001], [34.4163056612015, 31.431382805109], [34.41621545, 31.4317318070001], [34.4160458970001, 31.4323875870001], [34.415819974, 31.4332686110001], [34.4158086180687, 31.4333128631115], [34.416288191, 31.433382142], [34.4163525104523, 31.4333914518356], [34.4174931645393, 31.4335561990738], [34.4176535010338, 31.4335793852806], [34.4179257154465, 31.4336186945438], [34.4174376130104, 31.4350032806396], [34.4188439846039, 31.4351459741592], [34.4196395874023, 31.4352266788483], [34.419651796, 31.4353217290001], [34.4196583628654, 31.4354173541069], [34.4196591973305, 31.4355289936066], [34.4196597760001, 31.435589706], [34.4196568560001, 31.435641338], [34.4196498960001, 31.435692579], [34.4196389317513, 31.4357431232929], [34.4192571043968, 31.4367870092392], [34.4180774092674, 31.4367646872997], [34.4180093790001, 31.4368382690001], [34.4179356694222, 31.4369177222252], [34.4178631305695, 31.4369932711124], [34.4173112450001, 31.436854919], [34.4157509770001, 31.440283274], [34.4158539175987, 31.4405542314053], [34.4158646340001, 31.440582421], [34.4159973859787, 31.4409318566322], [34.4160668253899, 31.4411146044731], [34.4161508083344, 31.4413392543793], [34.4096306562424, 31.4508322477341], [34.4117228388786, 31.4523472487926], [34.412750063, 31.4519986130001], [34.4129951000214, 31.4523776769638], [34.4126199483871, 31.4525782465935], [34.4124761819839, 31.4526765346527], [34.4123182892799, 31.4527784585953], [34.4119921920001, 31.452988869], [34.411876652, 31.4530634230001], [34.4118070006371, 31.4531086683273], [34.412190965, 31.453284582], [34.4123558998108, 31.4533606171608], [34.412538619, 31.4534451860001], [34.4127031564713, 31.45353063941], [34.413025068, 31.4537162230001], [34.413216522, 31.4538389730001], [34.413274088, 31.4538747660001], [34.413348564, 31.4539187170001], [34.4134219884872, 31.4539656341076], [34.4134330300001, 31.453973008], [34.413444021, 31.4539804410001], [34.4134549498558, 31.4539879262447], [34.4134764671326, 31.4540028870106], [34.4134874700001, 31.4540107290001], [34.4134982040001, 31.454018433], [34.413530091, 31.454041869], [34.4135406017303, 31.454049795866], [34.4135510790001, 31.454057757], [34.413560305, 31.454064863], [34.4135718345642, 31.4540738463402], [34.4135821580001, 31.4540819750001], [34.4135923981667, 31.4540901482105], [34.4136025905609, 31.4540983736515], [34.4136179089546, 31.4541109204292], [34.4136428150001, 31.4541317860001], [34.4136550426483, 31.4541422426701], [34.4136917960001, 31.4541746570001], [34.4137648830001, 31.454243557], [34.4148732423782, 31.4553022384644], [34.414892174, 31.4553319510001], [34.413180104, 31.456687839], [34.4117340180001, 31.4572483640001], [34.4117189645767, 31.4572754502296], [34.4116969108582, 31.4573030769825], [34.4116207361221, 31.4573534727097], [34.4019998310001, 31.45944396], [34.4015828967094, 31.459764122963], [34.4014280760001, 31.459883029], [34.4013014920001, 31.459980237], [34.401128822, 31.4601144750001], [34.4000252970001, 31.461187796], [34.3995175750001, 31.4647523460001], [34.3994551770001, 31.464905265], [34.399412388, 31.4649890150001], [34.3993654847145, 31.4650705456734], [34.3993146419525, 31.4651496708393], [34.3992599248886, 31.4652261734009], [34.399203218, 31.4652978190001], [34.3991430997849, 31.4653666615486], [34.3990797400475, 31.4654325544834], [34.399013632, 31.465495011], [34.3988380160001, 31.4656359040001], [34.3987622610001, 31.4656885580001], [34.3986843660001, 31.4657379930001], [34.3986527323723, 31.465756803751], [34.3986207630001, 31.4657751170001], [34.3985608790001, 31.465807641], [34.398500068, 31.465838395], [34.3984572210001, 31.4658587380001], [34.3984086470001, 31.465880487], [34.3983438014984, 31.4659076035023], [34.3982556350001, 31.465940978], [34.3981662250001, 31.4659708930001], [34.3980935060001, 31.465992466], [34.3980291990001, 31.4660095740001], [34.397924647, 31.466033479], [34.3977221846581, 31.4660668969154], [34.39755939, 31.4660817970001], [34.3973943591118, 31.466086357832], [34.3970018625259, 31.4660546183586], [34.3969680650001, 31.4660359710001], [34.3966822, 31.4658567450001], [34.3964222430001, 31.4657005500001], [34.395846842, 31.4653770040001], [34.3955990750001, 31.465472687], [34.3954922710001, 31.4655525410001], [34.3954447507858, 31.4655994176865], [34.395401716, 31.465650435], [34.3927689790726, 31.4659561216831], [34.390011370182, 31.4657926559448], [34.3899666460001, 31.465791676], [34.3899202346802, 31.4657907187939], [34.3898266520001, 31.465789], [34.3896785974503, 31.465786755085], [34.389381395, 31.4657841440001], [34.3887600250001, 31.4657866480001], [34.3869771220001, 31.4658495620001], [34.3868461760001, 31.465847625], [34.3867645859718, 31.4658435583115], [34.386722896, 31.465840626], [34.386540634, 31.465821077], [34.386424038, 31.465802635], [34.3807912980001, 31.463465254], [34.3762250410001, 31.4624149520001], [34.3738928400001, 31.4614127070001], [34.373760342598, 31.4614077210426], [34.372820019722, 31.461372345686]]]}}]}